[{"OBJECT_NAME":"OBJECT C","OBJECT_ID":"2022-023C","EPOCH":"2026-03-09T22:57:27.819936","MEAN_MOTION":15.18202357,"ECCENTRICITY":0.00963055,"INCLINATION":63.4862,"RA_OF_ASC_NODE":247.9876,"ARG_OF_PERICENTER":349.5574,"MEAN_ANOMALY":10.3536,"EPHEMERIS_TYPE":0,"CLASSIFICATION_TYPE":"U","NORAD_CAT_ID":51948,"ELEMENT_SET_NO":999,"REV_AT_EPOCH":22265,"BSTAR":0.00022353772,"MEAN_MOTION_DOT":4.943e-5,"MEAN_MOTION_DDOT":0},{"OBJECT_NAME":"STARLINK-35109","OBJECT_ID":"2025-210W","EPOCH":"2026-03-09T22:33:33.185952","MEAN_MOTION":15.3020251,"ECCENTRICITY":8.28e-5,"INCLINATION":53.1571,"RA_OF_ASC_NODE":305.6144,"ARG_OF_PERICENTER":78.8903,"MEAN_ANOMALY":281.2191,"EPHEMERIS_TYPE":0,"CLASSIFICATION_TYPE":"U","NORAD_CAT_ID":65642,"ELEMENT_SET_NO":999,"REV_AT_EPOCH":2777,"BSTAR":0.00074966944,"MEAN_MOTION_DOT":0.00021911,"MEAN_MOTION_DDOT":0}]
